NORAD_CAT_ID,OBJECT_NAME,OBJECT_TYPE,EPOCH,MEAN_MOTION,ECCENTRICITY,INCLINATION,RA_OF_ASC_NODE,ARG_OF_PERICENTER,MEAN_ANOMALY,BSTAR,MEAN_MOTION_DOT,MEAN_MOTION_DDOT,TLE_LINE0,TLE_LINE1,TLE_LINE2,SEMIMAJOR_AXIS,PERIOD,APOGEE,PERIGEE,DECAYED
53821.0,STARLINK-4752,PAYLOAD,2024-04-29 12:21:15,15.08834684,0.0001312,53.217,57.8664,99.8452,260.2688,-0.00015106,-2.691e-05,0.0,0 STARLINK-4752,1 53821U 22114D   24120.51476839 -.00002691  00000-0 -15106-3 0  9997,2 53821  53.2170  57.8664 0001312  99.8452 260.2688 15.08834684 90535,6917.897,95.438,540.669,538.854,0.0
53821.0,STARLINK-4752,PAYLOAD,2024-04-29 20:18:12,15.08817151,0.0001479,53.2177,56.3787,96.6944,263.4217,7.8041e-05,9.54e-06,0.0,0 STARLINK-4752,1 53821U 22114D   24120.84597345  .00000954  00000-0  78041-4 0  9995,2 53821  53.2177  56.3787 0001479  96.6944 263.4217 15.08817151 90585,6917.95,95.439,540.838,538.792,0.0
53821.0,STARLINK-4752,PAYLOAD,2024-04-30 12:12:03,15.08823663,0.0001512,53.2178,53.4056,97.239,262.8774,0.00010121,1.322e-05,0.0,0 STARLINK-4752,1 53821U 22114D   24121.50837641  .00001322  00000-0  10121-3 0  9999,2 53821  53.2178  53.4056 0001512  97.2390 262.8774 15.08823663 90680,6917.93,95.439,540.841,538.749,0.0
53821.0,STARLINK-4752,PAYLOAD,2024-05-01 12:02:50,15.08835056,0.0001493,53.2181,48.9452,97.7847,262.3315,9.3868e-05,1.206e-05,0.0,0 STARLINK-4752,1 53821U 22114D   24122.50197561  .00001206  00000-0  93868-4 0  9991,2 53821  53.2181  48.9452 0001493  97.7847 262.3315 15.08835056 90835,6917.896,95.438,540.793,538.728,0.0
53821.0,STARLINK-4752,PAYLOAD,2024-05-02 11:53:37,15.08844985,0.000146,53.2179,44.4844,95.3118,264.8041,8.2857e-05,1.031e-05,0.0,0 STARLINK-4752,1 53821U 22114D   24123.49556889  .00001031  00000-0  82857-4 0  9994,2 53821  53.2179  44.4844 0001460  95.3118 264.8041 15.08844985 90987,6917.865,95.437,540.74,538.72,0.0
53821.0,STARLINK-4752,PAYLOAD,2024-05-03 02:12:05,15.08840804,0.0001492,53.2179,41.8084,95.355,264.7613,-9.0671e-06,-4.32e-06,0.0,0 STARLINK-4752,1 53821U 22114D   24124.09173416 -.00000432  00000-0 -90671-5 0  9992,2 53821  53.2179  41.8084 0001492  95.3550 264.7613 15.08840804 91070,6917.878,95.438,540.775,538.711,0.0
53821.0,STARLINK-4752,PAYLOAD,2024-05-03 11:44:24,15.08843851,0.0001495,53.218,40.0242,94.6426,265.4737,1.3805e-05,-6.8e-07,0.0,0 STARLINK-4752,1 53821U 22114D   24124.48917026 -.00000068  00000-0  13805-4 0  9995,2 53821  53.2180  40.0242 0001495  94.6426 265.4737 15.08843851 91672,6917.869,95.437,540.768,538.699,0.0
53821.0,STARLINK-4752,PAYLOAD,2024-05-03 22:52:06,15.08839323,0.000153,53.2181,37.9424,97.1944,262.9222,-5.2708e-05,-1.127e-05,0.0,0 STARLINK-4752,1 53821U 22114D   24124.95285439 -.00001127  00000-0 -52708-4 0  9996,2 53821  53.2181  37.9424 0001530  97.1944 262.9222 15.08839323 91741,6917.882,95.438,540.806,538.689,0.0
53821.0,STARLINK-4752,PAYLOAD,2024-05-04 03:38:15,15.08840148,0.0001504,53.2181,37.0502,99.5414,260.5748,-6.1323e-05,-1.264e-05,0.0,0 STARLINK-4752,1 53821U 22114D   24125.15157395 -.00001264  00000-0 -61323-4 0  9993,2 53821  53.2181  37.0502 0001504  99.5414 260.5748 15.08840148 91236,6917.88,95.438,540.785,538.704,0.0
53821.0,STARLINK-4752,PAYLOAD,2024-05-05 03:29:02,15.08841165,0.0001489,53.2183,32.5899,96.9083,263.2079,-1.0829e-05,-4.6e-06,0.0,0 STARLINK-4752,1 53821U 22114D   24126.14517070 -.00000460  00000-0 -10829-4 0  9995,2 53821  53.2183  32.5899 0001489  96.9083 263.2079 15.08841165 91925,6917.877,95.437,540.772,538.712,0.0
53821.0,STARLINK-4752,PAYLOAD,2024-05-05 20:58:17,15.08836149,0.0001459,53.2182,29.3188,96.3537,263.7621,2.1197e-05,4.9e-07,0.0,0 STARLINK-4752,1 53821U 22114D   24126.87381244  .00000049  00000-0  21197-4 0  9998,2 53821  53.2182  29.3188 0001459  96.3537 263.7621 15.08836149 91490,6917.892,95.438,540.766,538.748,0.0
53821.0,STARLINK-4752,PAYLOAD,2024-05-05 22:33:40,15.08835559,0.0001449,53.2181,29.0215,96.18,263.9357,1.6741e-05,-2.2e-07,0.0,0 STARLINK-4752,1 53821U 22114D   24126.94005307 -.00000022  00000-0  16741-4 0  9990,2 53821  53.2181  29.0215 0001449  96.1800 263.9357 15.08835559 92041,6917.894,95.438,540.761,538.757,0.0
53821.0,STARLINK-4752,PAYLOAD,2024-05-06 00:09:03,15.08836156,0.0001395,53.2181,28.7237,95.0701,265.045,4.8861e-06,-2.1e-06,0.0,0 STARLINK-4752,1 53821U 22114D   24127.00629325 -.00000210  00000-0  48861-5 0  9998,2 53821  53.2181  28.7237 0001395  95.0701 265.0450 15.08836156 92051,6917.892,95.438,540.722,538.792,0.0
53821.0,STARLINK-4752,PAYLOAD,2024-05-06 22:24:27,15.08838205,0.0001409,53.2184,24.5606,95.5368,264.5785,-2.6916e-06,-3.31e-06,0.0,0 STARLINK-4752,1 53821U 22114D   24127.93365337 -.00000331  00000-0 -26916-5 0  9992,2 53821  53.2184  24.5606 0001409  95.5368 264.5785 15.08838205 92195,6917.886,95.438,540.726,538.776,0.0
53821.0,STARLINK-4752,PAYLOAD,2024-05-07 03:10:37,15.0883912,0.0001388,53.2182,23.6695,92.3444,267.7707,4.8178e-07,-2.8e-06,0.0,0 STARLINK-4752,1 53821U 22114D   24128.13237307 -.00000280  00000-0  48178-6 0  9997,2 53821  53.2182  23.6695 0001388  92.3444 267.7707 15.08839120 91686,6917.883,95.438,540.708,538.788,0.0
53821.0,STARLINK-4752,PAYLOAD,2024-05-07 09:32:09,15.08839845,0.0001399,53.2184,22.4802,92.526,267.5893,8.613e-06,-1.51e-06,0.0,0 STARLINK-4752,1 53821U 22114D   24128.39733224 -.00000151  00000-0  86130-5 0  9990,2 53821  53.2184  22.4802 0001399  92.5260 267.5893 15.08839845 92268,6917.881,95.438,540.714,538.778,0.0
53821.0,STARLINK-4752,PAYLOAD,2024-05-07 20:39:52,15.08832201,0.0001526,53.2193,20.3997,96.2196,263.897,-1.1246e-05,-4.67e-06,0.0,0 STARLINK-4752,1 53821U 22114D   24128.86101882 -.00000467  00000-0 -11246-4 0  9997,2 53821  53.2193  20.3997 0001526  96.2196 263.8970 15.08832201 91792,6917.904,95.438,540.825,538.714,0.0
53821.0,STARLINK-4752,PAYLOAD,2024-05-07 22:15:15,15.08832147,0.0001519,53.2192,20.1024,96.1654,263.9511,-1.2053e-05,-4.8e-06,0.0,0 STARLINK-4752,1 53821U 22114D   24128.92725914 -.00000480  00000-0 -12053-4 0  9994,2 53821  53.2192  20.1024 0001519  96.1654 263.9511 15.08832147 92343,6917.904,95.438,540.82,538.719,0.0
53821.0,STARLINK-4752,PAYLOAD,2024-05-08 09:22:57,15.0883411,0.000153,53.2195,18.021,95.5579,264.5587,-9.6061e-06,-4.41e-06,0.0,0 STARLINK-4752,1 53821U 22114D   24129.39093970 -.00000441  00000-0 -96061-5 0  9995,2 53821  53.2195  18.0210 0001530  95.5579 264.5587 15.08834110 92411,6917.898,95.438,540.822,538.705,0.0
53821.0,STARLINK-4752,PAYLOAD,2024-05-08 22:06:02,15.08835535,0.0001507,53.2194,15.642,95.6593,264.4571,-1.56e-05,-5.36e-06,0.0,0 STARLINK-4752,1 53821U 22114D   24129.92086042 -.00000536  00000-0 -15600-4 0  9990,2 53821  53.2194  15.6420 0001507  95.6593 264.4571 15.08835535 92499,6917.894,95.438,540.802,538.717,0.0
53821.0,STARLINK-4752,PAYLOAD,2024-05-08 23:41:25,15.08835928,0.0001505,53.2194,15.3447,95.8082,264.3082,-1.1808e-05,-4.76e-06,0.0,0 STARLINK-4752,1 53821U 22114D   24129.98710019 -.00000476  00000-0 -11808-4 0  9993,2 53821  53.2194  15.3447 0001505  95.8082 264.3082 15.08835928 91961,6917.893,95.438,540.799,538.717,0.0
53821.0,STARLINK-4752,PAYLOAD,2024-05-09 09:13:44,15.08829247,0.0001438,53.2189,13.561,96.4276,263.688,-6.5975e-05,-1.337e-05,0.0,0 STARLINK-4752,1 53821U 22114D   24130.38454807 -.00001337  00000-0 -65975-4 0  9990,2 53821  53.2189  13.5610 0001438  96.4276 263.6880 15.08829247 92027,6917.913,95.438,540.773,538.783,0.0
53821.0,STARLINK-4752,PAYLOAD,2024-05-09 21:56:50,15.08829862,0.0001331,53.2182,11.1815,93.9199,266.1945,-1.3758e-05,-5.07e-06,0.0,0 STARLINK-4752,1 53821U 22114D   24130.91446908 -.00000507  00000-0 -13758-4 0  9992,2 53821  53.2182  11.1815 0001331  93.9199 266.1945 15.08829862 92640,6917.911,95.438,540.697,538.856,0.0
53821.0,STARLINK-4752,PAYLOAD,2024-05-10 09:04:31,15.08833732,0.0001285,53.2181,9.0997,92.1494,267.9645,1.4663e-05,-5.5e-07,0.0,0 STARLINK-4752,1 53821U 22114D   24131.37814791 -.00000055  00000-0  14663-4 0  9995,2 53821  53.2181   9.0997 0001285  92.1494 267.9645 15.08833732 92178,6917.9,95.438,540.653,538.876,0.0
53821.0,STARLINK-4752,PAYLOAD,2024-05-10 21:47:36,15.08837485,0.0001275,53.2181,6.7206,91.5404,268.5734,5.5532e-05,5.96e-06,0.0,0 STARLINK-4752,1 53821U 22114D   24131.90806550  .00000596  00000-0  55532-4 0  9997,2 53821  53.2181   6.7206 0001275  91.5404 268.5734 15.08837485 92791,6917.888,95.438,540.635,538.871,0.0
53821.0,STARLINK-4752,PAYLOAD,2024-05-11 00:58:22,15.08842511,0.0001299,53.2179,6.1257,91.8887,268.2254,9.8053e-05,1.273e-05,0.0,0 STARLINK-4752,1 53821U 22114D   24132.04054192  .00001273  00000-0  98053-4 0  9998,2 53821  53.2179   6.1257 0001299  91.8887 268.2254 15.08842511 92275,6917.873,95.437,540.636,538.839,0.0
53821.0,STARLINK-4752,PAYLOAD,2024-05-11 08:55:17,15.08853807,0.0001327,53.219,4.6391,91.3108,268.8036,0.00021587,3.151e-05,0.0,0 STARLINK-4752,1 53821U 22114D   24132.37172965  .00003151  00000-0  21587-3 0  9997,2 53821  53.2190   4.6391 0001327  91.3108 268.8036 15.08853807 92323,6917.838,95.437,540.621,538.785,0.0
53821.0,STARLINK-4752,PAYLOAD,2024-05-11 21:38:20,15.08867735,0.000117,53.2182,2.2593,93.1939,266.9187,0.00029978,4.49e-05,0.0,0 STARLINK-4752,1 53821U 22114D   24132.90162985  .00004490  00000-0  29978-3 0  9996,2 53821  53.2182   2.2593 0001170  93.1939 266.9187 15.08867735 92400,6917.796,95.436,540.47,538.851,0.0
53821.0,STARLINK-4752,PAYLOAD,2024-05-12 08:46:02,15.08867733,0.0002097,53.2179,0.1775,68.0186,292.1029,0.0002232,3.268e-05,0.0,0 STARLINK-4752,1 53821U 22114D   24133.36530764  .00003268  00000-0  22320-3 0  9997,2 53821  53.2179   0.1775 0002097  68.0186 292.1029 15.08867733 93011,6917.796,95.436,541.111,538.21,0.0
53821.0,STARLINK-4752,PAYLOAD,2024-05-12 21:29:09,15.08858324,0.0001194,53.2208,357.7976,103.2124,256.9002,4.194e-05,3.8e-06,0.0,0 STARLINK-4752,1 53821U 22114D   24133.89524569  .00000380  00000-0  41940-4 0  9993,2 53821  53.2208 357.7976 0001194 103.2124 256.9002 15.08858324 92552,6917.824,95.436,540.515,538.863,0.0
